IRIDIUM 166             
1 43570U 18061B   23316.48970018  .00000492  00000+0  16848-3 0  9991
2 43570  86.3943  92.8147 0002108  98.1736 261.9698 14.34218562277564
IRIDIUM 158             
1 43571U 18061C   23316.80683638  .00000045  00000+0  90657-5 0  9993
2 43571  86.3943  92.6909 0002401  93.4174 266.7297 14.34215848277583
IRIDIUM 165             
1 43572U 18061D   23316.48336467  .00000454  00000+0  15491-3 0  9998
2 43572  86.3944  92.8549 0002410  93.1703 266.9769 14.34212800277550
IRIDIUM 155             
1 43573U 18061E   23316.44530757  .00000386  00000+0  13094-3 0  9994
2 43573  86.3940  92.7863 0001825  96.5207 263.6197 14.34213171277517
IRIDIUM 154             
1 43574U 18061F   23316.42626020  .00000422  00000+0  14361-3 0  9991
2 43574  86.3943  92.8816 0001983  84.6421 275.5001 14.34223330277560
IRIDIUM 163             
1 43575U 18061G   23316.82586507  .00000496  00000+0  16994-3 0  9996
2 43575  86.3943  92.6595 0002061  88.7514 271.3918 14.34215474277593
IRIDIUM 156             
1 43576U 18061H   23316.45164931  .00000076  00000+0  20131-4 0  9992
2 43576  86.3940  92.8218 0002154  98.4832 261.6608 14.34211597277533
IRIDIUM 164             
1 43577U 18061J   23316.64191800  .00000496  00000+0  16994-3 0  9996
2 43577  86.3945  92.7675 0002446  94.4292 265.7183 14.34216260277608
